332P-J/Ikeya-Murakami,e,9.4296,3.6729,152.7712,3.115165,0.1792596,0.49429435,359.8613,03/17.0/2016,2000,g 20.5,2.0
# From MPEC 2020-L06
333P/LINEAR,e,131.9999,115.6494,25.9844,4.220976,0.1136540,0.73652589,265.6489,08/22.0/2022,2000,g 15.0,4.0
# From MPC115888
334P/NEAT,e,20.4023,90.6058,90.1082,6.837298,0.0551286,0.35060267,105.0026,08/22.0/2022,2000,g 10.5,4.0
# From MPEC 2021-U31
335P/Gibbs,e,7.2933,330.8473,162.3079,3.578010,0.1456269,0.54616020,1.4548,08/22.0/2022,2000,g 17.0,4.0
# From MPC105244
336P/McNaught,e,17.8287,298.2589,308.7226,5.035402,0.0872274,0.44415334,176.9732,08/22.0/2022,2000,g 13.5,4.0
# From MPEC 2022-Q33
337P/WISE,e,15.3712,106.0606,161.0379,3.285597,0.1654941,0.49657058,8.5778,08/22.0/2022,2000,g 17.0,4.0
# From MPEC 2022-K19
338P/McNaught,e,25.3865,9.7998,4.4670,3.894575,0.1282372,0.41203987,268.7232,08/22.0/2022,2000,g 12.0,4.0
# From MPC101101
339P/Gibbs,e,5.7332,172.7227,27.4785,3.698978,0.1385420,0.63551277,308.1861,08/22.0/2022,2000,g 17.0,4.0
# From MPC133426
340P/Boattini,e,2.0781,291.6770,35.9767,4.250313,0.1124793,0.28082437,236.0101,08/22.0/2022,2000,g 14.3,4.0
# From MPEC 2022-K19
341P/Gibbs,e,3.7972,29.9681,312.2441,4.291213,0.1108751,0.41575860,251.9979,08/22.0/2022,2000,g 12.5,4.0
# From MPC101101
342P/SOHO,e,11.6666,27.7096,73.2589,3.041583,0.1858038,0.98277066,0.0000,10/19.2879/2021,2000,g  9.0,4.0
# From MPEC 2022-K19
343P/NEAT-LONEOS,e,5.5892,257.1320,137.4499,5.458280,0.0772895,0.58501031,156.8692,08/22.0/2022,2000,g 14.0,4.0
# From MPC109148
344P/Read,e,3.4938,273.1311,140.4179,4.862078,0.0919330,0.42295114,194.7261,08/22.0/2022,2000,g 13.0,4.0
# From MPEC 2022-K19
345P/LINEAR,e,2.7275,154.5155,196.5311,4.035628,0.1215731,0.22149286,270.1702,08/22.0/2022,2000,g 12.0,4.0
# From MPEC 2022-K19
346P/Catalina,e,22.1982,102.4548,335.9548,4.473823,0.1041564,0.50302892,209.9138,08/22.0/2022,2000,g 14.0,4.0
# From MPEC 2022-K19
347P/PANSTARRS,e,11.7538,261.0207,98.4203,3.604347,0.1440337,0.38609118,312.1721,08/22.0/2022,2000,g 15.0,4.0
# From MPEC 2022-ED3
348P/PANSTARRS,e,17.7391,312.9417,135.6695,3.151199,0.1761937,0.30697314,33.5560,08/22.0/2022,2000,g 14.0,4.0
# From MPEC 2022-K19
349P/Lemmon,e,5.4905,331.7507,255.9376,3.575504,0.1457801,0.29845743,266.0336,08/22.0/2022,2000,g 14.0,4.0
# From MPC111775
350P/McNaught,e,7.3626,65.2967,139.7066,4.085861,0.1193380,0.09295018,204.4392,08/22.0/2022,2000,g 14.0,4.0
# From MPC105244
351P/Wiegert-PANSTARRS,e,12.7807,283.4315,352.6835,4.438769,0.1053926,0.29526942,260.1376,08/22.0/2022,2000,g 12.5,4.0
# From MPC110086
352P/Skiff,e,21.0125,28.0105,309.3205,6.643556,0.0575577,0.61800193,108.5563,08/22.0/2022,2000,g 11.5,4.0
# From MPEC 2020-AA5
353P/McNaught,e,28.4146,121.5388,230.4502,4.170717,0.1157145,0.47039102,197.0381,08/22.0/2022,2000,g 14.5,4.0
# From MPC105545
354P/LINEAR,e,5.2546,320.1313,132.7735,2.290104,0.2843945,0.12542373,241.1095,08/22.0/2022,2000,g 15.5,4.0
# From MPEC 2020-AA5
355P/LINEAR-NEAT,e,11.0458,51.4312,336.2944,3.470065,0.1524746,0.50777624,270.2663,08/22.0/2022,2000,g 15.5,2.0
# From MPEC 2022-F14
356P/WISE,e,9.6381,160.7980,226.0239,4.157454,0.1162687,0.35575608,198.4411,08/22.0/2022,2000,g 14.0,4.0
# From MPC114609
357P/Hill,e,6.3154,44.5585,1.3933,4.458387,0.1046978,0.43558496,161.7293,08/22.0/2022,2000,g 15.5,4.0
# From MPEC 2020-HN5
358P/PANSTARRS,e,11.0603,85.7025,299.7765,3.146587,0.1765812,0.23890357,281.2097,08/22.0/2022,2000,g 18.0,4.0
# From MPC110086
359P/LONEOS,e,10.2668,149.7546,200.2443,4.639973,0.0986123,0.32420393,179.9586,08/22.0/2022,2000,g 13.5,4.0
# From MPC108599
360P/WISE,e,24.1121,2.1923,354.1806,3.700502,0.1384564,0.49927822,252.8999,08/22.0/2022,2000,g 19.5,6.0
# From MPC114609
361P/Spacewatch,e,13.9016,203.2560,219.0021,4.935998,0.0898756,0.43882019,135.7848,08/22.0/2022,2000,g 12.0,4.0
# From MPEC 2017-V13
362P/,e,15.5567,192.5466,53.6390,3.971170,0.1245450,0.27884139,272.9838,08/22.0/2022,2000,g 12.9,2.0
# From MPC114609
363P/Lemmon,e,5.4079,146.8840,341.0166,3.564899,0.1464310,0.52051342,240.7989,08/22.0/2022,2000,g 17.5,4.0
# From MPEC 2022-K19
364P/PANSTARRS,e,12.1350,46.1598,212.0159,2.880003,0.2016576,0.72184020,306.5585,08/22.0/2022,2000,g 17.0,2.0
# From MPC111775
365P/PANSTARRS,e,9.8329,86.4176,67.5091,3.162099,0.1752834,0.58129687,287.5619,08/22.0/2022,2000,g 17.0,4.0
# From MPC114610
366P/Spacewatch,e,8.8572,70.7629,153.0660,3.496663,0.1507382,0.34802148,225.3134,08/22.0/2022,2000,g 15.0,4.0
# From MPC112395
367P/Catalina,e,8.4599,58.7203,172.8300,3.507249,0.1500563,0.27979530,228.8077,08/22.0/2022,2000,g 17.5,2.0
# From MPC114610
368P/NEAT,e,15.4814,257.8725,118.8818,5.528811,0.0758152,0.62673856,108.9142,08/22.0/2022,2000,g 14.0,4.0
# From MPC114610
369P/Hill,e,10.3221,47.2905,13.1535,4.382109,0.1074433,0.55517572,151.0632,08/22.0/2022,2000,g 15.0,4.0
# From MPEC 2021-F20
370P/NEAT,e,19.4201,55.0787,356.6926,6.434279,0.0603885,0.61519625,92.6051,08/22.0/2022,2000,g 13.0,4.0
# From MPC114610
371P/LINEAR-Skiff,e,17.3828,67.2553,308.5313,4.180675,0.1153014,0.47706215,163.2737,08/22.0/2022,2000,g 16.0,4.0
# From MPEC 2020-K19
372P/McNaught,e,9.5082,325.8180,27.5582,4.507175,0.1030024,0.15262760,144.0081,08/22.0/2022,2000,g 13.5,4.0
# From MPEC 2021-F20
373P/Rinner,e,13.7682,231.9576,221.0181,3.801464,0.1329774,0.39267599,163.7133,08/22.0/2022,2000,g 14.5,4.0
# From MPC114610
374P/Larson,e,10.7669,7.9151,51.4463,4.971823,0.0889059,0.46317907,117.2245,08/22.0/2022,2000,g 14.0,4.0
# From MPEC 2021-F20
375P/Hill,e,17.3614,359.9513,119.3817,5.551293,0.0753551,0.65876857,100.9896,08/22.0/2022,2000,g 16.0,4.0
# From MPEC 2022-K19
376P/LONEOS,e,1.1766,314.0412,284.6836,5.780447,0.0709189,0.51647396,75.4284,08/22.0/2022,2000,g 12.5,4.0
# From MPEC 2022-N37
377P/Scotti,e,9.0242,226.0665,355.0456,6.705606,0.0567606,0.25161196,43.7717,08/22.0/2022,2000,g  9.5,4.0
# From MPEC 2022-Q33
378P/McNaught,e,19.0509,94.1522,193.6861,6.338479,0.0617627,0.46802607,41.6253,08/22.0/2022,2000,g 12.0,4.0
# From MPC115889
379P/Spacewatch,e,12.4512,183.8365,30.5982,3.510764,0.1498310,0.34292996,167.1750,08/22.0/2022,2000,g 15.0,4.0
# From MPEC 2022-K19
380P/PANSTARRS,e,8.1776,132.1908,86.4225,4.436655,0.1054680,0.34059318,124.7326,08/22.0/2022,2000,g 14.6,4.0
# From MPEC 2021-J28
381P/LINEAR-Spacewatch,e,28.3790,173.7578,173.2633,7.133846,0.0517271,0.68188839,54.8205,08/22.0/2022,2000,g 17.5,2.0
# From MPEC 2022-PB4
382P/Larson,e,8.4564,173.7361,167.9999,6.318453,0.0620566,0.30225731,13.0766,08/22.0/2022,2000,g  8.0,4.0
# From MPEC 2022-OB6
383P/Christensen,e,12.3248,207.8286,133.7612,3.546593,0.1475663,0.59950507,152.0615,08/22.0/2022,2000,g 18.0,4.0
# From MPEC 2022-OB6
384P/Kowalski,e,7.2844,354.2295,37.6265,2.900219,0.1995528,0.61607652,208.5140,08/22.0/2022,2000,g 19.5,4.0
# From MPEC 2021-F20
385P/Hill,e,16.8324,357.0607,44.3309,4.288433,0.1109829,0.40193174,118.9277,08/22.0/2022,2000,g 13.0,4.0
# From MPEC 2021-L04
386P/PANSTARRS,e,15.2304,134.9404,353.1373,4.053651,0.1207632,0.41628585,88.5135,08/22.0/2022,2000,g 14.5,4.0
# From MPEC 2021-J28
387P/Boattini,e,8.9270,259.2678,162.7865,4.797114,0.0938067,0.73659860,101.3406,08/22.0/2022,2000,g 15.0,4.0
# From MPEC 2021-S45
388P/Gibbs,e,23.8845,37.0448,42.3048,5.241563,0.0821321,0.61849236,92.4024,08/22.0/2022,2000,g 13.0,4.0
# From MPEC 2022-OB6
389P/Siding Spring,e,160.0818,218.8718,249.3807,5.632316,0.0737350,0.70434821,71.2732,08/22.0/2022,2000,g 16.0,4.0
# From MPEC 2022-OB6
390P/Gibbs,e,18.5604,152.2736,232.3767,5.808441,0.0704068,0.70740553,62.1288,08/22.0/2022,2000,g 12.0,4.0
# From MPEC 2021-F20
391P/Kowalski,e,21.2705,124.7378,187.2822,4.682931,0.0972585,0.12003764,156.9190,08/22.0/2022,2000,g  8.0,4.0
# From MPEC 2021-J28
392P/LINEAR,e,4.9319,24.8861,71.8906,6.141340,0.0647604,0.68302511,56.5410,08/22.0/2022,2000,g 14.5,4.0
# From MPEC 2021-BE3
393P/Spacewatch-Hill,e,16.7877,36.3978,328.6786,4.791082,0.0939839,0.12066740,96.6086,08/22.0/2022,2000,g 11.0,4.0
# From MPEC 2020-KB7
394P/PANSTARRS,e,8.5294,98.1254,54.4828,4.330764,0.1093597,0.36744807,108.9511,08/22.0/2022,2000,g 16.0,2.4
# From MPEC 2022-Q33
395P/Catalina-NEAT,e,3.2842,223.2599,90.3761,6.620089,0.0578640,0.38593028,13.5062,08/22.0/2022,2000,g 10.0,4.0
# From MPEC 2020-KB7
396P/,e,5.4366,136.6578,8.4530,6.808702,0.0554763,0.41570073,60.4888,08/22.0/2022,2000,g 12.0,4.0
# From MPEC 2022-OB6
397P/Lemmon,e,10.9298,8.1947,14.5008,3.829447,0.1315225,0.40528909,104.3365,08/22.0/2022,2000,g 12.0,4.0
# From MPEC 2021-L04
398P/Boattini,e,11.0158,127.4498,320.2030,3.126983,0.1782443,0.58288288,107.5137,08/22.0/2022,2000,g 15.5,4.0
# From MPEC 2022-M88
399P/PANSTARRS,e,13.3204,207.1334,214.3356,3.791463,0.1335038,0.44718102,60.9170,08/22.0/2022,2000,g 14.0,4.0
# From MPEC 2022-ED3
400P/PANSTARRS,e,10.9303,176.3915,238.8158,3.561307,0.1466526,0.40946446,81.7938,08/22.0/2022,2000,g 15.5,2.8
# From MPEC 2022-K19
401P/McNaught,e,12.8026,359.8776,309.4135,5.776068,0.0709996,0.57973508,70.2230,08/22.0/2022,2000,g 12.5,4.0
# From MPEC 2022-P82
402P/LINEAR,e,30.8476,123.0931,326.7380,7.021657,0.0529718,0.43917592,13.2631,08/22.0/2022,2000,g  8.0,4.0
# From MPEC 2021-J28
403P/Catalina,e,12.3218,163.8126,277.6382,5.428171,0.0779334,0.50375584,54.9083,08/22.0/2022,2000,g 12.0,4.0
# From MPEC 2022-OB6
404P/Bressi,e,9.7370,260.3715,167.7859,4.770576,0.0945906,0.13301704,319.4640,08/22.0/2022,2000,g 10.0,4.0
# From MPEC 2021-L04
405P/Lemmon,e,9.3656,3.3159,112.1988,3.606688,0.1438935,0.68919448,87.1579,08/22.0/2022,2000,g 17.5,4.0
# From MPEC 2021-F20
406P/Gibbs,e,1.2133,11.4829,352.4166,3.576316,0.1457304,0.54206542,102.7576,08/22.0/2022,2000,g 17.0,4.0
# From MPEC 2021-F20
407P/PANSTARRS-Fuls,e,4.8757,80.5087,93.3853,3.472942,0.1522852,0.38141214,142.2454,08/22.0/2022,2000,g 14.0,4.0
# From MPEC 2022-Q33
408P/Novichonok-Gerke,e,19.3568,189.4408,226.4464,4.744702,0.0953654,0.26917850,355.8052,08/22.0/2022,2000,g 11.0,4.0
# From MPEC 2022-ED3
409P/LONEOS-Hill,e,17.1195,143.6688,15.1091,6.040925,0.0663818,0.70967013,37.9011,08/22.0/2022,2000,g 14.0,4.0
# From MPEC 2022-M21
